NORAD_CAT_ID,OBJECT_NAME,OBJECT_TYPE,EPOCH,MEAN_MOTION,ECCENTRICITY,INCLINATION,RA_OF_ASC_NODE,ARG_OF_PERICENTER,MEAN_ANOMALY,BSTAR,MEAN_MOTION_DOT,MEAN_MOTION_DDOT,TLE_LINE0,TLE_LINE1,TLE_LINE2,SEMIMAJOR_AXIS,PERIOD,APOGEE,PERIGEE,DECAYED
51114.0,STARLINK-3375,PAYLOAD,2023-02-17 21:25:03,15.0883236,0.0001187,53.2137,258.1349,99.9026,260.21,-7.1211e-05,-1.421e-05,0.0,0 STARLINK-3375,1 51114U 22005L   23048.89240444 -.00001421  00000-0 -71211-4 0  9999,2 51114  53.2137 258.1349 0001187  99.9026 260.2100 15.08832360 60439,6917.904,95.438,540.59,538.948,0.0
51114.0,STARLINK-3375,PAYLOAD,2023-02-18 13:18:55,15.08836287,0.0001375,53.2126,255.16,86.3416,273.7734,0.00011664,1.569e-05,0.0,0 STARLINK-3375,1 51114U 22005L   23049.55480790  .00001569  00000-0  11664-3 0  9999,2 51114  53.2126 255.1600 0001375  86.3416 273.7734 15.08836287 60531,6917.892,95.438,540.708,538.806,0.0
51114.0,STARLINK-3375,PAYLOAD,2023-02-18 19:40:27,15.08840431,0.0001093,53.2122,253.9705,87.7719,272.3399,0.00025421,3.76e-05,0.0,0 STARLINK-3375,1 51114U 22005L   23049.81976707  .00003760  00000-0  25421-3 0  9997,2 51114  53.2122 253.9705 0001093  87.7719 272.3399 15.08840431 61682,6917.879,95.438,540.5,538.988,0.0
51114.0,STARLINK-3375,PAYLOAD,2023-02-19 06:48:09,15.088403,8.23e-05,53.2131,251.8884,96.3461,263.7625,0.00017755,2.539e-05,0.0,0 STARLINK-3375,1 51114U 22005L   23050.28344608  .00002539  00000-0  17755-3 0  9993,2 51114  53.2131 251.8884 0000823  96.3461 263.7625 15.08840300 60643,6917.879,95.438,540.314,539.175,0.0
51114.0,STARLINK-3375,PAYLOAD,2023-02-19 21:06:37,15.0884704,0.0001147,53.2128,249.2119,87.8865,272.2258,0.0002693,4.001e-05,0.0,0 STARLINK-3375,1 51114U 22005L   23050.87960471  .00004001  00000-0  26930-3 0  9991,2 51114  53.2128 249.2119 0001147  87.8865 272.2258 15.08847040 61842,6917.859,95.437,540.517,538.93,0.0
51114.0,STARLINK-3375,PAYLOAD,2023-02-20 06:38:56,15.08847254,0.0001125,53.2129,247.4277,84.0881,276.0239,0.00021936,3.206e-05,0.0,0 STARLINK-3375,1 51114U 22005L   23051.27704387  .00003206  00000-0  21936-3 0  9995,2 51114  53.2129 247.4277 0001125  84.0881 276.0239 15.08847254 60792,6917.858,95.437,540.501,538.945,0.0
51114.0,STARLINK-3375,PAYLOAD,2023-02-21 00:08:10,15.08853285,0.0001152,53.2138,244.1561,89.5477,270.5647,0.00017714,2.533e-05,0.0,0 STARLINK-3375,1 51114U 22005L   23052.00567828  .00002533  00000-0  17714-3 0  9995,2 51114  53.2138 244.1561 0001152  89.5477 270.5647 15.08853285 62013,6917.84,95.437,540.502,538.908,0.0
51114.0,STARLINK-3375,PAYLOAD,2023-02-21 19:12:48,15.08844472,0.0001243,53.2137,240.5872,85.7093,274.4041,5.8194e-05,6.39e-06,0.0,0 STARLINK-3375,1 51114U 22005L   23052.80056188  .00000639  00000-0  58194-4 0  9998,2 51114  53.2137 240.5872 0001243  85.7093 274.4041 15.08844472 62132,6917.867,95.437,540.592,538.872,0.0
51114.0,STARLINK-3375,PAYLOAD,2023-02-22 12:42:03,15.08839603,0.0001258,53.2141,237.3161,85.4153,274.6983,5.5971e-05,6.03e-06,0.0,0 STARLINK-3375,1 51114U 22005L   23053.52920375  .00000603  00000-0  55971-4 0  9997,2 51114  53.2141 237.3161 0001258  85.4153 274.6983 15.08839603 61138,6917.882,95.438,540.617,538.876,0.0
51114.0,STARLINK-3375,PAYLOAD,2023-02-22 20:38:58,15.08846791,0.0001226,53.214,235.8293,82.6686,277.4446,0.00016491,2.338e-05,0.0,0 STARLINK-3375,1 51114U 22005L   23053.86040024  .00002338  00000-0  16491-3 0  9998,2 51114  53.2140 235.8293 0001226  82.6686 277.4446 15.08846791 61187,6917.86,95.437,540.573,538.877,0.0
51114.0,STARLINK-3375,PAYLOAD,2023-02-23 04:35:54,15.0883441,8.43e-05,53.2147,234.3423,95.542,264.5668,-8.6682e-05,-1.667e-05,0.0,0 STARLINK-3375,1 51114U 22005L   23054.19160271 -.00001667  00000-0 -86682-4 0  9998,2 51114  53.2147 234.3423 0000843  95.5420 264.5668 15.08834410 62343,6917.897,95.438,540.346,539.179,0.0
51114.0,STARLINK-3375,PAYLOAD,2023-02-23 10:57:27,15.08838502,0.0001606,53.2139,233.1524,73.4263,286.6905,-2.1854e-05,-6.36e-06,0.0,0 STARLINK-3375,1 51114U 22005L   23054.45656448 -.00000636  00000-0 -21854-4 0  9998,2 51114  53.2139 233.1524 0001606  73.4263 286.6905 15.08838502 61277,6917.885,95.438,540.861,538.639,0.0
51114.0,STARLINK-3375,PAYLOAD,2023-02-23 20:29:45,15.08845232,0.0001268,53.214,231.3687,81.675,278.4385,0.00014021,1.945e-05,0.0,0 STARLINK-3375,1 51114U 22005L   23054.85400190  .00001945  00000-0  14021-3 0  9992,2 51114  53.2140 231.3687 0001268  81.6750 278.4385 15.08845232 61331,6917.864,95.437,540.607,538.852,0.0
51114.0,STARLINK-3375,PAYLOAD,2023-02-23 22:05:08,15.08846379,0.0001285,53.2139,231.0712,82.5213,277.5925,0.00018276,2.622e-05,0.0,0 STARLINK-3375,1 51114U 22005L   23054.92024120  .00002622  00000-0  18276-3 0  9994,2 51114  53.2139 231.0712 0001285  82.5213 277.5925 15.08846379 62455,6917.861,95.437,540.615,538.837,0.0
51114.0,STARLINK-3375,PAYLOAD,2023-02-24 04:26:41,15.08834562,8.86e-05,53.2144,229.8818,94.6357,265.4736,-6.266e-05,-1.285e-05,0.0,0 STARLINK-3375,1 51114U 22005L   23055.18520406 -.00001285  00000-0 -62660-4 0  9994,2 51114  53.2144 229.8818 0000886  94.6357 265.4736 15.08834562 62493,6917.897,95.438,540.375,539.149,0.0
51114.0,STARLINK-3375,PAYLOAD,2023-02-24 20:20:33,15.0884053,0.0001235,53.214,226.9079,89.3891,270.7242,0.0001721,2.452e-05,0.0,0 STARLINK-3375,1 51114U 22005L   23055.84760560  .00002452  00000-0  17210-3 0  9999,2 51114  53.2140 226.9079 0001235  89.3891 270.7242 15.08840530 61480,6917.879,95.438,540.598,538.889,0.0
51114.0,STARLINK-3375,PAYLOAD,2023-02-25 13:49:47,15.08836447,0.0001272,53.2137,223.6364,87.9149,272.1989,0.00016618,2.358e-05,0.0,0 STARLINK-3375,1 51114U 22005L   23056.57624949  .00002358  00000-0  16618-3 0  9996,2 51114  53.2137 223.6364 0001272  87.9149 272.1989 15.08836447 61596,6917.891,95.438,540.636,538.876,0.0
51114.0,STARLINK-3375,PAYLOAD,2023-02-25 18:35:57,15.08839733,0.0001209,53.2139,222.7442,85.9625,274.1505,0.00020752,3.016e-05,0.0,0 STARLINK-3375,1 51114U 22005L   23056.77496899  .00003016  00000-0  20752-3 0  9995,2 51114  53.2139 222.7442 0001209  85.9625 274.1505 15.08839733 62736,6917.881,95.438,540.583,538.91,0.0
51114.0,STARLINK-3375,PAYLOAD,2023-02-25 20:11:20,15.08843846,0.0001258,53.2141,222.4475,81.0897,279.0238,0.00031151,4.674e-05,0.0,0 STARLINK-3375,1 51114U 22005L   23056.84120861  .00004674  00000-0  31151-3 0  9992,2 51114  53.2141 222.4475 0001258  81.0897 279.0238 15.08843846 61639,6917.869,95.437,540.604,538.863,0.0
51114.0,STARLINK-3375,PAYLOAD,2023-02-26 04:08:16,15.0884266,0.0001282,53.2142,220.9611,83.9355,276.1783,0.00028677,4.279e-05,0.0,0 STARLINK-3375,1 51114U 22005L   23057.17240972  .00004279  00000-0  28677-3 0  9995,2 51114  53.2142 220.9611 0001282  83.9355 276.1783 15.08842660 61683,6917.872,95.437,540.624,538.85,0.0
51114.0,STARLINK-3375,PAYLOAD,2023-02-26 16:51:20,15.08853589,0.0001308,53.2144,218.5824,82.891,277.2231,0.00046902,7.187e-05,0.0,0 STARLINK-3375,1 51114U 22005L   23057.70232595  .00007187  00000-0  46902-3 0  9998,2 51114  53.2144 218.5824 0001308  82.8910 277.2231 15.08853589 61769,6917.839,95.437,540.609,538.799,0.0
51114.0,STARLINK-3375,PAYLOAD,2023-02-27 10:20:35,15.08847743,0.000129,53.214,215.3088,104.8793,255.2342,0.00026571,3.944e-05,0.0,0 STARLINK-3375,1 51114U 22005L   23058.43096542  .00003944  00000-0  26571-3 0  9996,2 51114  53.2140 215.3088 0001290 104.8793 255.2342 15.08847743 62985,6917.857,95.437,540.614,538.829,0.0
51114.0,STARLINK-3375,PAYLOAD,2023-02-27 18:17:30,15.08877422,0.0001399,53.2138,213.8235,95.7874,264.3278,0.0011335,0.00017816,0.0,0 STARLINK-3375,1 51114U 22005L   23058.76215800  .00017816  00000-0  11335-2 0  9996,2 51114  53.2138 213.8235 0001399  95.7874 264.3278 15.08877422 63030,6917.766,95.435,540.599,538.663,0.0
51114.0,STARLINK-3375,PAYLOAD,2023-02-27 21:28:16,15.0887268,0.0001417,53.2137,213.2288,96.4223,263.693,0.0012103,0.00019044,0.0,0 STARLINK-3375,1 51114U 22005L   23058.89463798  .00019044  00000-0  12103-2 0  9990,2 51114  53.2137 213.2288 0001417  96.4223 263.6930 15.08872680 61944,6917.781,95.435,540.626,538.665,0.0
51114.0,STARLINK-3375,PAYLOAD,2023-02-28 13:22:09,15.08816918,0.0001378,53.213,210.256,76.2353,283.8793,-0.00031306,-5.264e-05,0.0,0 STARLINK-3375,1 51114U 22005L   23059.55705450 -.00005264  00000-0 -31306-3 0  9996,2 51114  53.2130 210.2560 0001378  76.2353 283.8793 15.08816918 62048,6917.951,95.439,540.769,538.863,0.0
51114.0,STARLINK-3375,PAYLOAD,2023-02-28 14:57:32,15.08821126,0.0001348,53.2132,209.9588,75.6623,284.4519,-0.00021379,-3.687e-05,0.0,0 STARLINK-3375,1 51114U 22005L   23059.62329563 -.00003687  00000-0 -21379-3 0  9997,2 51114  53.2132 209.9588 0001348  75.6623 284.4519 15.08821126 63169,6917.938,95.439,540.736,538.871,0.0
51114.0,STARLINK-3375,PAYLOAD,2023-02-28 19:43:42,15.08826443,0.0001402,53.2142,209.0667,76.7125,283.4024,-5.7933e-05,-1.209e-05,0.0,0 STARLINK-3375,1 51114U 22005L   23059.82201744 -.00001209  00000-0 -57933-4 0  9993,2 51114  53.2142 209.0667 0001402  76.7125 283.4024 15.08826443 62086,6917.922,95.438,540.757,538.817,0.0
51114.0,STARLINK-3375,PAYLOAD,2023-03-01 10:02:11,15.08830925,0.0001474,53.2141,206.3902,74.9207,285.1948,0.0004303,6.565e-05,0.0,0 STARLINK-3375,1 51114U 22005L   23060.41818376  .00006565  00000-0  43030-3 0  9995,2 51114  53.2141 206.3902 0001474  74.9207 285.1948 15.08830925 63284,6917.908,95.438,540.793,538.753,0.0
51114.0,STARLINK-3375,PAYLOAD,2023-03-01 16:23:43,15.08846242,0.0001514,53.2141,205.2008,70.781,289.3346,0.001015,0.00015905,0.0,0 STARLINK-3375,1 51114U 22005L   23060.68314331  .00015905  00000-0  10150-2 0  9990,2 51114  53.2141 205.2008 0001514  70.7810 289.3346 15.08846242 63320,6917.861,95.437,540.774,538.679,0.0
51114.0,STARLINK-3375,PAYLOAD,2023-03-02 01:56:02,15.08841658,0.0002339,53.2138,203.4158,82.1007,278.025,0.0004016,6.109e-05,0.0,0 STARLINK-3375,1 51114U 22005L   23061.08058670  .00006109  00000-0  40160-3 0  9997,2 51114  53.2138 203.4158 0002339  82.1007 278.0250 15.08841658 63384,6917.875,95.437,541.358,538.122,0.0
